[{"OBJECT_NAME":"STARLINK-35977","OBJECT_ID":"2025-270S","EPOCH":"2026-03-09T23:19:20.348256","MEAN_MOTION":15.27607303,"ECCENTRICITY":0.00013156,"INCLINATION":43.002,"RA_OF_ASC_NODE":54.1796,"ARG_OF_PERICENTER":237.2277,"MEAN_ANOMALY":122.8448,"EPHEMERIS_TYPE":0,"CLASSIFICATION_TYPE":"U","NORAD_CAT_ID":66604,"ELEMENT_SET_NO":999,"REV_AT_EPOCH":1775,"BSTAR":0.001399044,"MEAN_MOTION_DOT":0.0003847,"MEAN_MOTION_DDOT":0},{"OBJECT_NAME":"CZ-4C R\/B","OBJECT_ID":"2022-039B","EPOCH":"2026-03-09T15:51:32.485824","MEAN_MOTION":15.03008334,"ECCENTRICITY":0.0113659,"INCLINATION":98.2525,"RA_OF_ASC_NODE":105.9247,"ARG_OF_PERICENTER":45.8852,"MEAN_ANOMALY":315.1654,"EPHEMERIS_TYPE":0,"CLASSIFICATION_TYPE":"U","NORAD_CAT_ID":52258,"ELEMENT_SET_NO":999,"REV_AT_EPOCH":21291,"BSTAR":0.00022979194,"MEAN_MOTION_DOT":3.483e-5,"MEAN_MOTION_DDOT":0}]
